STARLINK-2022           
1 47643U 21012Z   23218.71188661  .00052610  00000+0  35270-2 0  9996
2 47643  53.0546 338.2840 0001064 115.7658 244.3440 15.06374538137162
